ONEWEB-0158             
1 48054U 21025N   24312.63808423  .00000239  00000+0  61879-3 0  9994
2 48054  87.8909  76.8812 0001649 102.6223 257.5091 13.13471000176634
ONEWEB-0157             
1 48055U 21025P   24312.58571186  .00000223  00000+0  57584-3 0  9993
2 48055  87.8907  76.9049 0001095  92.4225 267.7029 13.13470765176562
ONEWEB-0162             
1 48056U 21025Q   24312.39684744  .00000004  00000+0 -23462-4 0  9995
2 48056  87.8905  76.9363 0001552 101.2231 258.9073 13.13473710176513
ONEWEB-0155             
1 48057U 21025R   24312.64602910  .00000422  00000+0  11202-2 0  9999
2 48057  87.8908  76.8993 0001486  91.9717 268.1583 13.13470350176689
ONEWEB-0149             
1 48058U 21025S   24312.59047445  .00000109  00000+0  26476-3 0  9992
2 48058  87.8906  76.9059 0001551 107.9539 252.1759 13.13470470176484
ONEWEB-0148             
1 48059U 21025T   24312.63173255  .00000188  00000+0  47954-3 0  9998
2 48059  87.8911  76.9132 0001261 123.0015 237.1235 13.13472797176610
ONEWEB-0160             
1 48060U 21025U   24312.64760633  .00000365  00000+0  96464-3 0  9990
2 48060  87.8911  76.9062 0002450  99.9213 260.2192 13.13471491176569
ONEWEB-0163             
1 48061U 21025V   24312.63331883  .00000208  00000+0  53392-3 0  9990
2 48061  87.8908  76.8974 0001257  97.7333 262.3939 13.13473169176689
